[{"OBJECT_NAME":"ONEWEB-0094","OBJECT_ID":"2020-020AC","EPOCH":"2026-05-23T08:55:24.071232","MEAN_MOTION":13.1764916,"ECCENTRICITY":0.0001804,"INCLINATION":87.9163,"RA_OF_ASC_NODE":10.7817,"ARG_OF_PERICENTER":76.9775,"MEAN_ANOMALY":283.1558,"EPHEMERIS_TYPE":0,"CLASSIFICATION_TYPE":"U","NORAD_CAT_ID":45450,"ELEMENT_SET_NO":999,"REV_AT_EPOCH":30304,"BSTAR":8.282500000000001e-05,"MEAN_MOTION_DOT":4.5e-07,"MEAN_MOTION_DDOT":0.0},{"OBJECT_NAME":"ONEWEB-0087","OBJECT_ID":"2020-020AD","EPOCH":"2026-05-23T09:17:50.578080","MEAN_MOTION":13.11415994,"ECCENTRICITY":0.000201,"INCLINATION":87.8927,"RA_OF_ASC_NODE":25.9718,"ARG_OF_PERICENTER":74.7403,"MEAN_ANOMALY":285.3947,"EPHEMERIS_TYPE":0,"CLASSIFICATION_TYPE":"U","NORAD_CAT_ID":45451,"ELEMENT_SET_NO":999,"REV_AT_EPOCH":29933,"BSTAR":-0.0010213,"MEAN_MOTION_DOT":-3.49e-06,"MEAN_MOTION_DDOT":0.0},{"OBJECT_NAME":"ONEWEB-0082","OBJECT_ID":"2020-020AE","EPOCH":"2026-05-23T09:13:10.583328","MEAN_MOTION":13.11416368,"ECCENTRICITY":0.0001935,"INCLINATION":87.8917,"RA_OF_ASC_NODE":25.9916,"ARG_OF_PERICENTER":74.9235,"MEAN_ANOMALY":285.2107,"EPHEMERIS_TYPE":0,"CLASSIFICATION_TYPE":"U","NORAD_CAT_ID":45452,"ELEMENT_SET_NO":999,"REV_AT_EPOCH":29942,"BSTAR":-0.0014685000000000002,"MEAN_MOTION_DOT":-5.08e-06,"MEAN_MOTION_DDOT":0.0},{"OBJECT_NAME":"ONEWEB-0050","OBJECT_ID":"2020-020AF","EPOCH":"2026-05-23T12:00:21.347712","MEAN_MOTION":14.90248637,"ECCENTRICITY":0.0005942,"INCLINATION":88.9304,"RA_OF_ASC_NODE":236.5606,"ARG_OF_PERICENTER":79.3359,"MEAN_ANOMALY":280.8539,"EPHEMERIS_TYPE":0,"CLASSIFICATION_TYPE":"U","NORAD_CAT_ID":45453,"ELEMENT_SET_NO":999,"REV_AT_EPOCH":33670,"BSTAR":0.00010815,"MEAN_MOTION_DOT":1.071e-05,"MEAN_MOTION_DDOT":0.0},{"OBJECT_NAME":"ONEWEB-0034","OBJECT_ID":"2020-020AG","EPOCH":"2026-05-23T09:58:27.306048","MEAN_MOTION":13.10935598,"ECCENTRICITY":0.0001802,"INCLINATION":87.892,"RA_OF_ASC_NODE":25.9926,"ARG_OF_PERICENTER":80.5156,"MEAN_ANOMALY":279.6175,"EPHEMERIS_TYPE":0,"CLASSIFICATION_TYPE":"U","NORAD_CAT_ID":45454,"ELEMENT_SET_NO":999,"REV_AT_EPOCH":29934,"BSTAR":0.00049737,"MEAN_MOTION_DOT":1.88e-06,"MEAN_MOTION_DDOT":0.0},{"OBJECT_NAME":"ONEWEB-0060","OBJECT_ID":"2020-020AH","EPOCH":"2026-05-23T09:02:11.157792","MEAN_MOTION":13.11414312,"ECCENTRICITY":0.0002395,"INCLINATION":87.8909,"RA_OF_ASC_NODE":26.0025,"ARG_OF_PERICENTER":58.4929,"MEAN_ANOMALY":301.6433,"EPHEMERIS_TYPE":0,"CLASSIFICATION_TYPE":"U","NORAD_CAT_ID":45455,"ELEMENT_SET_NO":999,"REV_AT_EPOCH":29929,"BSTAR":-0.00032146000000000003,"MEAN_MOTION_DOT":-1.01e-06,"MEAN_MOTION_DDOT":0.0},{"OBJECT_NAME":"ONEWEB-0086","OBJECT_ID":"2020-020AJ","EPOCH":"2026-05-23T10:21:33.168096","MEAN_MOTION":13.11415944,"ECCENTRICITY":0.000171,"INCLINATION":87.8919,"RA_OF_ASC_NODE":25.9852,"ARG_OF_PERICENTER":57.9485,"MEAN_ANOMALY":302.1809,"EPHEMERIS_TYPE":0,"CLASSIFICATION_TYPE":"U","NORAD_CAT_ID":45456,"ELEMENT_SET_NO":999,"REV_AT_EPOCH":29936,"BSTAR":0.001429,"MEAN_MOTION_DOT":5.19e-06,"MEAN_MOTION_DDOT":0.0},{"OBJECT_NAME":"ONEWEB-0088","OBJECT_ID":"2020-020AK","EPOCH":"2026-05-23T09:49:48.558720","MEAN_MOTION":13.11418468,"ECCENTRICITY":0.0002173,"INCLINATION":87.8929,"RA_OF_ASC_NODE":25.9601,"ARG_OF_PERICENTER":88.5175,"MEAN_ANOMALY":271.6202,"EPHEMERIS_TYPE":0,"CLASSIFICATION_TYPE":"U","NORAD_CAT_ID":45457,"ELEMENT_SET_NO":999,"REV_AT_EPOCH":29929,"BSTAR":-0.00065428,"MEAN_MOTION_DOT":-2.19e-06,"MEAN_MOTION_DDOT":0.0},{"OBJECT_NAME":"ONEWEB-0102","OBJECT_ID":"2020-100A","EPOCH":"2026-05-23T12:13:29.527392","MEAN_MOTION":13.1244204,"ECCENTRICITY":0.0001539,"INCLINATION":87.895,"RA_OF_ASC_NODE":355.5847,"ARG_OF_PERICENTER":79.9599,"MEAN_ANOMALY":280.1703,"EPHEMERIS_TYPE":0,"CLASSIFICATION_TYPE":"U","NORAD_CAT_ID":47258,"ELEMENT_SET_NO":999,"REV_AT_EPOCH":26149,"BSTAR":0.00076938,"MEAN_MOTION_DOT":2.9e-06,"MEAN_MOTION_DDOT":0.0},{"OBJECT_NAME":"ONEWEB-0109","OBJECT_ID":"2020-100B","EPOCH":"2026-05-23T12:25:40.607040","MEAN_MOTION":13.12441211,"ECCENTRICITY":0.0001629,"INCLINATION":87.8962,"RA_OF_ASC_NODE":355.5642,"ARG_OF_PERICENTER":87.7632,"MEAN_ANOMALY":272.3683,"EPHEMERIS_TYPE":0,"CLASSIFICATION_TYPE":"U","NORAD_CAT_ID":47259,"ELEMENT_SET_NO":999,"REV_AT_EPOCH":26132,"BSTAR":0.00018064,"MEAN_MOTION_DOT":7.8e-07,"MEAN_MOTION_DDOT":0.0},{"OBJECT_NAME":"ONEWEB-0110","OBJECT_ID":"2020-100C","EPOCH":"2026-05-23T13:04:42.255264","MEAN_MOTION":13.1244297,"ECCENTRICITY":0.0001747,"INCLINATION":87.8962,"RA_OF_ASC_NODE":355.5428,"ARG_OF_PERICENTER":77.814,"MEAN_ANOMALY":282.3184,"EPHEMERIS_TYPE":0,"CLASSIFICATION_TYPE":"U","NORAD_CAT_ID":47260,"ELEMENT_SET_NO":999,"REV_AT_EPOCH":26149,"BSTAR":-0.00090702,"MEAN_MOTION_DOT":-3.14e-06,"MEAN_MOTION_DDOT":0.0},{"OBJECT_NAME":"ONEWEB-0111","OBJECT_ID":"2020-100D","EPOCH":"2026-05-23T11:58:50.491200","MEAN_MOTION":13.12443176,"ECCENTRICITY":0.0001867,"INCLINATION":87.8961,"RA_OF_ASC_NODE":355.5707,"ARG_OF_PERICENTER":83.1076,"MEAN_ANOMALY":277.0265,"EPHEMERIS_TYPE":0,"CLASSIFICATION_TYPE":"U","NORAD_CAT_ID":47261,"ELEMENT_SET_NO":999,"REV_AT_EPOCH":26132,"BSTAR":0.0010336,"MEAN_MOTION_DOT":3.85e-06,"MEAN_MOTION_DDOT":0.0},{"OBJECT_NAME":"ONEWEB-0114","OBJECT_ID":"2020-100E","EPOCH":"2026-05-23T12:42:44.624160","MEAN_MOTION":13.12441451,"ECCENTRICITY":0.000173,"INCLINATION":87.8963,"RA_OF_ASC_NODE":355.5617,"ARG_OF_PERICENTER":94.2137,"MEAN_ANOMALY":265.9189,"EPHEMERIS_TYPE":0,"CLASSIFICATION_TYPE":"U","NORAD_CAT_ID":47262,"ELEMENT_SET_NO":999,"REV_AT_EPOCH":26128,"BSTAR":-0.0008548200000000001,"MEAN_MOTION_DOT":-2.95e-06,"MEAN_MOTION_DDOT":0.0},{"OBJECT_NAME":"ONEWEB-0117","OBJECT_ID":"2020-100F","EPOCH":"2026-05-23T12:30:32.544000","MEAN_MOTION":13.12440065,"ECCENTRICITY":0.0001763,"INCLINATION":87.8959,"RA_OF_ASC_NODE":355.5551,"ARG_OF_PERICENTER":84.7276,"MEAN_ANOMALY":275.4053,"EPHEMERIS_TYPE":0,"CLASSIFICATION_TYPE":"U","NORAD_CAT_ID":47263,"ELEMENT_SET_NO":999,"REV_AT_EPOCH":26129,"BSTAR":-0.00024135,"MEAN_MOTION_DOT":-7.4e-07,"MEAN_MOTION_DDOT":0.0},{"OBJECT_NAME":"ONEWEB-0118","OBJECT_ID":"2020-100G","EPOCH":"2026-05-23T07:49:58.778400","MEAN_MOTION":13.12443275,"ECCENTRICITY":0.0001905,"INCLINATION":87.8961,"RA_OF_ASC_NODE":355.5964,"ARG_OF_PERICENTER":95.7772,"MEAN_ANOMALY":264.3574,"EPHEMERIS_TYPE":0,"CLASSIFICATION_TYPE":"U","NORAD_CAT_ID":47264,"ELEMENT_SET_NO":999,"REV_AT_EPOCH":26146,"BSTAR":-0.00069756,"MEAN_MOTION_DOT":-2.38e-06,"MEAN_MOTION_DDOT":0.0},{"OBJECT_NAME":"ONEWEB-0119","OBJECT_ID":"2020-100H","EPOCH":"2026-05-23T12:06:09.573408","MEAN_MOTION":13.12440999,"ECCENTRICITY":0.0001771,"INCLINATION":87.895,"RA_OF_ASC_NODE":355.5801,"ARG_OF_PERICENTER":86.1184,"MEAN_ANOMALY":274.0147,"EPHEMERIS_TYPE":0,"CLASSIFICATION_TYPE":"U","NORAD_CAT_ID":47265,"ELEMENT_SET_NO":999,"REV_AT_EPOCH":26146,"BSTAR":0.0009504200000000001,"MEAN_MOTION_DOT":3.55e-06,"MEAN_MOTION_DDOT":0.0}]