ONEWEB-0094             
1 45450U 20020AC  26143.37180638  .00000045  00000+0  82825-4 0  9991
2 45450  87.9163  10.7817 0001804  76.9775 283.1558 13.17649160303042
ONEWEB-0087             
1 45451U 20020AD  26143.38739095 -.00000349  00000+0 -10213-2 0  9999
2 45451  87.8927  25.9718 0002010  74.7403 285.3947 13.11415994299334
ONEWEB-0082             
1 45452U 20020AE  26143.38415027 -.00000508  00000+0 -14685-2 0  9990
2 45452  87.8917  25.9916 0001935  74.9235 285.2107 13.11416368299427
ONEWEB-0050             
1 45453U 20020AF  26143.50024708  .00001071  00000+0  10815-3 0  9993
2 45453  88.9304 236.5606 0005942  79.3359 280.8539 14.90248637336707
ONEWEB-0034             
1 45454U 20020AG  26143.41559382  .00000188  00000+0  49737-3 0  9998
2 45454  87.8920  25.9926 0001802  80.5156 279.6175 13.10935598299345
ONEWEB-0060             
1 45455U 20020AH  26143.37651803 -.00000101  00000+0 -32146-3 0  9998
2 45455  87.8909  26.0025 0002395  58.4929 301.6433 13.11414312299299
ONEWEB-0086             
1 45456U 20020AJ  26143.43163389  .00000519  00000+0  14290-2 0  9993
2 45456  87.8919  25.9852 0001710  57.9485 302.1809 13.11415944299361
ONEWEB-0088             
1 45457U 20020AK  26143.40958980 -.00000219  00000+0 -65428-3 0  9999
2 45457  87.8929  25.9601 0002173  88.5175 271.6202 13.11418468299298
ONEWEB-0102             
1 47258U 20100A   26143.50936953  .00000290  00000+0  76938-3 0  9991
2 47258  87.8950 355.5847 0001539  79.9599 280.1703 13.12442040261492
ONEWEB-0109             
1 47259U 20100B   26143.51783110  .00000078  00000+0  18064-3 0  9998
2 47259  87.8962 355.5642 0001629  87.7632 272.3683 13.12441211261325
ONEWEB-0110             
1 47260U 20100C   26143.54493351 -.00000314  00000+0 -90702-3 0  9992
2 47260  87.8962 355.5428 0001747  77.8140 282.3184 13.12442970261492
ONEWEB-0111             
1 47261U 20100D   26143.49919550  .00000385  00000+0  10336-2 0  9991
2 47261  87.8961 355.5707 0001867  83.1076 277.0265 13.12443176261325
ONEWEB-0114             
1 47262U 20100E   26143.52968315 -.00000295  00000+0 -85482-3 0  9996
2 47262  87.8963 355.5617 0001730  94.2137 265.9189 13.12441451261288
ONEWEB-0117             
1 47263U 20100F   26143.52121000 -.00000074  00000+0 -24135-3 0  9992
2 47263  87.8959 355.5551 0001763  84.7276 275.4053 13.12440065261292
ONEWEB-0118             
1 47264U 20100G   26143.32637475 -.00000238  00000+0 -69756-3 0  9999
2 47264  87.8961 355.5964 0001905  95.7772 264.3574 13.12443275261465
ONEWEB-0119             
1 47265U 20100H   26143.50427747  .00000355  00000+0  95042-3 0  9994
2 47265  87.8950 355.5801 0001771  86.1184 274.0147 13.12440999261460
